IRIDIUM 150             
1 43257U 18030J   25084.46679106  .00000269  00000+0  89131-4 0  9993
2 43257  86.3934 118.0832 0001995  92.0688 268.0736 14.34218582365842
IRIDIUM 143             
1 43258U 18030K   25084.02915481  .00000086  00000+0  23795-4 0  9996
2 43258  86.3934 118.3415 0001827  91.9791 268.1614 14.34220745365716
IRIDIUM 161             
1 43478U 18047C   25084.04379783  .00000451  00000+0  12812-3 0  9992
2 43478  86.4429 276.1325 0002142  91.6730 268.4716 14.43288027360352
IRIDIUM 152             
1 43479U 18047D   25084.49025548 -.00000027  00000+0 -16857-4 0  9994
2 43479  86.3902 275.8055 0002059  88.5367 271.6064 14.34217547358170
IRIDIUM 147             
1 43480U 18047E   25084.00821674  .00000058  00000+0  13814-4 0  9999
2 43480  86.3905 276.0046 0002223  93.7814 266.3636 14.34219214358108
IRIDIUM 110             
1 43481U 18047F   25084.57270893  .00000136  00000+0  41605-4 0  9999
2 43481  86.3907 275.8486 0002550  87.7822 272.3665 14.34218882358177
IRIDIUM 162             
1 43482U 18047G   25084.59216130  .00000428  00000+0  12123-3 0  9992
2 43482  86.4428 275.7991 0002272  81.6604 278.4855 14.43282883360420
IRIDIUM 160             
1 43569U 18061A   25083.96039740  .00000491  00000+0  16809-3 0  9999
2 43569  86.3940 244.4552 0002342  94.3558 265.7905 14.34220085348985
